{
  "type": "FeatureCollection",
  "generator": "overpass-turbo",
  "copyright": "The data included in this document is from www.openstreetmap.org. The data is made available under ODbL.",
  "timestamp": "2025-12-11T09:26:12Z",
  "features": [
    {
      "type": "Feature",
      "properties": {
        "@id": "relation/6092926",
        "addr:street": "Egyetem utca",
        "building": "university",
        "building:levels": "3",
        "name": "SZTE BTK Épület",
        "old_name": "MÁV Leszámoló Palota",
        "opening_hours": "Mo-Fr 05:00-22:00; Sa 07:00-19:00; PH off",
        "roof:levels": "0",
        "type": "multipolygon"
      },
      "geometry": {
        "type": "Polygon",
        "coordinates": [
          [
            [
              20.140189,
              46.2472732
            ],
            [
              20.1403819,
              46.2471692
            ],
            [
              20.1405624,
              46.2470718
            ],
            [
              20.1405903,
              46.2470663
            ],
            [
              20.1406208,
              46.24707
            ],
            [
              20.1406433,
              46.2470783
            ],
            [
              20.1410037,
              46.2472734
            ],
            [
              20.1410104,
              46.2472669
            ],
            [
              20.14107,
              46.2472972
            ],
            [
              20.1410845,
              46.2472807
            ],
            [
              20.1411143,
              46.2472648
            ],
            [
              20.1411389,
              46.2472551
            ],
            [
              20.1411805,
              46.2472492
            ],
            [
              20.1412157,
              46.2472478
            ],
            [
              20.1412563,
              46.2472547
            ],
            [
              20.1412854,
              46.2472672
            ],
            [
              20.141311,
              46.2472818
            ],
            [
              20.1413266,
              46.2472998
            ],
            [
              20.1413376,
              46.2473241
            ],
            [
              20.1413426,
              46.2473474
            ],
            [
              20.1413401,
              46.2473723
            ],
            [
              20.1413316,
              46.2473932
            ],
            [
              20.141317,
              46.2474081
            ],
            [
              20.1413033,
              46.2474207
            ],
            [
              20.1413675,
              46.2474553
            ],
            [
              20.1413618,
              46.2474607
            ],
            [
              20.1417342,
              46.2476551
            ],
            [
              20.1417486,
              46.24767
            ],
            [
              20.1417516,
              46.247687
            ],
            [
              20.141748,
              46.2477044
            ],
            [
              20.1417402,
              46.2477118
            ],
            [
              20.141724,
              46.2477238
            ],
            [
              20.1415334,
              46.2478346
            ],
            [
              20.1413869,
              46.2479197
            ],
            [
              20.1413696,
              46.247928
            ],
            [
              20.1413552,
              46.2479296
            ],
            [
              20.1413336,
              46.2479263
            ],
            [
              20.1402032,
              46.2473354
            ],
            [
              20.1401884,
              46.247323
            ],
            [
              20.1401817,
              46.2473096
            ],
            [
              20.1401787,
              46.2472937
            ],
            [
              20.140189,
              46.2472732
            ]
          ],
          [
            [
              20.1412228,
              46.2477428
            ],
            [
              20.1413361,
              46.247801
            ],
            [
              20.1413939,
              46.2477664
            ],
            [
              20.141351,
              46.2477261
            ],
            [
              20.141401,
              46.2476896
            ],
            [
              20.1414643,
              46.2477242
            ],
            [
              20.1415204,
              46.2476949
            ],
            [
              20.1415198,
              46.247677
            ],
            [
              20.1413757,
              46.2476028
            ],
            [
              20.1412228,
              46.2477428
            ]
          ],
          [
            [
              20.1409512,
              46.2475959
            ],
            [
              20.1410377,
              46.2476388
            ],
            [
              20.1410601,
              46.2476172
            ],
            [
              20.1411145,
              46.2476442
            ],
            [
              20.1412121,
              46.2475502
            ],
            [
              20.1411718,
              46.2475302
            ],
            [
              20.1411976,
              46.2475053
            ],
            [
              20.141097,
              46.2474554
            ],
            [
              20.1409512,
              46.2475959
            ]
          ],
          [
            [
              20.1407453,
              46.2474921
            ],
            [
              20.1408434,
              46.2475417
            ],
            [
              20.140995,
              46.2473983
            ],
            [
              20.1408974,
              46.2473489
            ],
            [
              20.1408706,
              46.2473743
            ],
            [
              20.140822,
              46.2473498
            ],
            [
              20.1407306,
              46.2474363
            ],
            [
              20.1407786,
              46.2474606
            ],
            [
              20.1407453,
              46.2474921
            ]
          ],
          [
            [
              20.140569,
              46.2474012
            ],
            [
              20.1407247,
              46.2472548
            ],
            [
              20.1406059,
              46.2471941
            ],
            [
              20.1405321,
              46.2472354
            ],
            [
              20.1405704,
              46.2472649
            ],
            [
              20.1405084,
              46.2472934
            ],
            [
              20.1404695,
              46.2472672
            ],
            [
              20.1403949,
              46.2473109
            ],
            [
              20.140569,
              46.2474012
            ]
          ]
        ]
      },
      "id": "relation/6092926"
    },
    {
      "type": "Feature",
      "properties": {
        "@id": "way/54367271",
        "addr:city": "Szeged",
        "addr:housenumber": "10",
        "addr:postcode": "6722",
        "addr:street": "Ady tér",
        "amenity": "university",
        "building": "university",
        "building:levels": "5",
        "building:levels:underground": "2",
        "description": "university library",
        "internet_access": "yes",
        "internet_access:ssid": "eduroam",
        "name": "SZTE József Attila Tanulmányi és Információs Központ (TIK)",
        "name:en": "SZTE Attila József Study and Information Center",
        "opening_hours": "Mo-Fr 08:00-22:00; Sa 09:00-20:00",
        "operator": "Szegedi Tudományegyetem",
        "short_name": "József Attila Központ",
        "website": "https://www.u-szeged.hu/tik",
        "wikidata": "Q1102857",
        "wikipedia": "hu:József Attila Tanulmányi és Információs Központ"
      },
      "geometry": {
        "type": "Polygon",
        "coordinates": [
          [
            [
              20.1420616,
              46.2466667
            ],
            [
              20.1421009,
              46.2466315
            ],
            [
              20.1422339,
              46.2467358
            ],
            [
              20.1423713,
              46.2468442
            ],
            [
              20.1424912,
              46.2469385
            ],
            [
              20.1424985,
              46.2469382
            ],
            [
              20.1425379,
              46.246944
            ],
            [
              20.1425739,
              46.2469565
            ],
            [
              20.1426041,
              46.2469749
            ],
            [
              20.1426267,
              46.246998
            ],
            [
              20.14264,
              46.2470242
            ],
            [
              20.1426434,
              46.2470519
            ],
            [
              20.1426365,
              46.2470794
            ],
            [
              20.1426198,
              46.2471047
            ],
            [
              20.1426357,
              46.2471171
            ],
            [
              20.1426668,
              46.2471416
            ],
            [
              20.1425004,
              46.2472499
            ],
            [
              20.1424542,
              46.2472208
            ],
            [
              20.1424169,
              46.2471972
            ],
            [
              20.1422799,
              46.2471078
            ],
            [
              20.1422024,
              46.2471566
            ],
            [
              20.1421217,
              46.2472075
            ],
            [
              20.1422511,
              46.2473021
            ],
            [
              20.1420613,
              46.2474225
            ],
            [
              20.1412116,
              46.2467719
            ],
            [
              20.1413816,
              46.2466612
            ],
            [
              20.1417557,
              46.2464268
            ],
            [
              20.1420616,
              46.2466667
            ]
          ]
        ]
      },
      "id": "way/54367271"
    },
    {
      "type": "Feature",
      "properties": {
        "@id": "way/362829108",
        "addr:city": "Szeged",
        "addr:housenumber": "10",
        "addr:postcode": "6722",
        "addr:street": "Zászló utca",
        "building": "yes"
      },
      "geometry": {
        "type": "Polygon",
        "coordinates": [
          [
            [
              20.1424899,
              46.2464162
            ],
            [
              20.1425157,
              46.2464383
            ],
            [
              20.1425254,
              46.2464323
            ],
            [
              20.1425771,
              46.2464723
            ],
            [
              20.1425675,
              46.2464772
            ],
            [
              20.1425959,
              46.2465017
            ],
            [
              20.1426075,
              46.246494
            ],
            [
              20.1426552,
              46.246533
            ],
            [
              20.1426445,
              46.2465379
            ],
            [
              20.1426775,
              46.2465649
            ],
            [
              20.1425344,
              46.2466509
            ],
            [
              20.1423428,
              46.2465025
            ],
            [
              20.1424899,
              46.2464162
            ]
          ]
        ]
      },
      "id": "way/362829108"
    },
    {
      "type": "Feature",
      "properties": {
        "@id": "way/362829109",
        "building": "yes",
        "fixme": "resurvey using recent imagery"
      },
      "geometry": {
        "type": "Polygon",
        "coordinates": [
          [
            [
              20.142348,
              46.246322
            ],
            [
              20.1424407,
              46.2463944
            ],
            [
              20.1423096,
              46.2464747
            ],
            [
              20.1422169,
              46.2464023
            ],
            [
              20.142348,
              46.246322
            ]
          ]
        ]
      },
      "id": "way/362829109"
    },
    {
      "type": "Feature",
      "properties": {
        "@id": "way/362829111",
        "building": "yes"
      },
      "geometry": {
        "type": "Polygon",
        "coordinates": [
          [
            [
              20.1422338,
              46.2461796
            ],
            [
              20.1422554,
              46.2461956
            ],
            [
              20.1423188,
              46.2461571
            ],
            [
              20.1423268,
              46.2461627
            ],
            [
              20.1423739,
              46.2461961
            ],
            [
              20.1422359,
              46.246287
            ],
            [
              20.1421574,
              46.246229
            ],
            [
              20.1422338,
              46.2461796
            ]
          ]
        ]
      },
      "id": "way/362829111"
    },
    {
      "type": "Feature",
      "properties": {
        "@id": "way/363289422",
        "building": "yes"
      },
      "geometry": {
        "type": "Polygon",
        "coordinates": [
          [
            [
              20.1405076,
              46.2462145
            ],
            [
              20.1406292,
              46.2461414
            ],
            [
              20.1407356,
              46.246226
            ],
            [
              20.140614,
              46.2462991
            ],
            [
              20.1405076,
              46.2462145
            ]
          ]
        ]
      },
      "id": "way/363289422"
    },
    {
      "type": "Feature",
      "properties": {
        "@id": "way/363289444",
        "addr:city": "Szeged",
        "addr:housenumber": "4",
        "addr:postcode": "6722",
        "addr:street": "Alföldi utca",
        "building": "yes"
      },
      "geometry": {
        "type": "Polygon",
        "coordinates": [
          [
            [
              20.140614,
              46.2462991
            ],
            [
              20.1407356,
              46.246226
            ],
            [
              20.140778,
              46.2462598
            ],
            [
              20.1407848,
              46.2462557
            ],
            [
              20.1408458,
              46.2463043
            ],
            [
              20.1407175,
              46.2463815
            ],
            [
              20.140614,
              46.2462991
            ]
          ]
        ]
      },
      "id": "way/363289444"
    },
    {
      "type": "Feature",
      "properties": {
        "@id": "way/363289461",
        "building": "yes"
      },
      "geometry": {
        "type": "Polygon",
        "coordinates": [
          [
            [
              20.1408619,
              46.2464855
            ],
            [
              20.14088,
              46.246475
            ],
            [
              20.1408584,
              46.2464571
            ],
            [
              20.1409636,
              46.2463962
            ],
            [
              20.1409853,
              46.2464141
            ],
            [
              20.1410134,
              46.2463978
            ],
            [
              20.1411157,
              46.2464823
            ],
            [
              20.1409642,
              46.24657
            ],
            [
              20.1408619,
              46.2464855
            ]
          ]
        ]
      },
      "id": "way/363289461"
    },
    {
      "type": "Feature",
      "properties": {
        "@id": "way/363289472",
        "addr:city": "Szeged",
        "addr:housenumber": "27",
        "addr:postcode": "6722",
        "addr:street": "Batthyány utca",
        "building": "hotel",
        "contact:website": "https://www.rivaprestigehotel.hu/",
        "fixme": "Resurvey using recent imagery",
        "name": "Riva Prestige Hotel",
        "rooms": "15",
        "stars": "4",
        "tourism": "hotel"
      },
      "geometry": {
        "type": "Polygon",
        "coordinates": [
          [
            [
              20.1413669,
              46.2463421
            ],
            [
              20.1412684,
              46.2462584
            ],
            [
              20.1414529,
              46.2461547
            ],
            [
              20.1415513,
              46.2462384
            ],
            [
              20.1413669,
              46.2463421
            ]
          ]
        ]
      },
      "id": "way/363289472"
    },
    {
      "type": "Feature",
      "properties": {
        "@id": "way/363289477",
        "addr:city": "Szeged",
        "addr:housenumber": "28",
        "addr:postcode": "6722",
        "addr:street": "Batthyány utca",
        "building": "yes"
      },
      "geometry": {
        "type": "Polygon",
        "coordinates": [
          [
            [
              20.1410542,
              46.2463584
            ],
            [
              20.1410966,
              46.2463355
            ],
            [
              20.1410677,
              46.24631
            ],
            [
              20.1411815,
              46.2462484
            ],
            [
              20.1412074,
              46.2462713
            ],
            [
              20.1412537,
              46.2462462
            ],
            [
              20.1412684,
              46.2462584
            ],
            [
              20.1413669,
              46.2463421
            ],
            [
              20.1411639,
              46.2464553
            ],
            [
              20.1410542,
              46.2463584
            ]
          ]
        ]
      },
      "id": "way/363289477"
    },
    {
      "type": "Feature",
      "properties": {
        "@id": "way/363379541",
        "addr:city": "Szeged",
        "addr:housenumber": "3",
        "addr:postcode": "6722",
        "addr:street": "Alföldi utca",
        "building": "yes"
      },
      "geometry": {
        "type": "Polygon",
        "coordinates": [
          [
            [
              20.1404695,
              46.2463882
            ],
            [
              20.1405526,
              46.2464513
            ],
            [
              20.1404633,
              46.2465076
            ],
            [
              20.1403802,
              46.2464444
            ],
            [
              20.1404545,
              46.246397
            ],
            [
              20.1404695,
              46.2463882
            ]
          ]
        ]
      },
      "id": "way/363379541"
    },
    {
      "type": "Feature",
      "properties": {
        "@id": "way/363379572",
        "building": "yes"
      },
      "geometry": {
        "type": "Polygon",
        "coordinates": [
          [
            [
              20.1406657,
              46.2465391
            ],
            [
              20.1408072,
              46.2466539
            ],
            [
              20.1406159,
              46.246763
            ],
            [
              20.1405022,
              46.2466709
            ],
            [
              20.1403682,
              46.2465624
            ],
            [
              20.1404389,
              46.2465227
            ],
            [
              20.1405462,
              46.2466096
            ],
            [
              20.1406657,
              46.2465391
            ]
          ]
        ]
      },
      "id": "way/363379572"
    },
    {
      "type": "Feature",
      "properties": {
        "@id": "way/363379581",
        "addr:city": "Szeged",
        "addr:housenumber": "31",
        "addr:postcode": "6722",
        "addr:street": "Batthyány utca",
        "building": "yes"
      },
      "geometry": {
        "type": "Polygon",
        "coordinates": [
          [
            [
              20.1406159,
              46.246763
            ],
            [
              20.1403541,
              46.2469101
            ],
            [
              20.1402433,
              46.2468093
            ],
            [
              20.1405022,
              46.2466709
            ],
            [
              20.1406159,
              46.246763
            ]
          ]
        ]
      },
      "id": "way/363379581"
    },
    {
      "type": "Feature",
      "properties": {
        "@id": "way/406699426",
        "building": "roof",
        "layer": "1"
      },
      "geometry": {
        "type": "Polygon",
        "coordinates": [
          [
            [
              20.1420613,
              46.2474225
            ],
            [
              20.1422511,
              46.2473021
            ],
            [
              20.1424169,
              46.2471972
            ],
            [
              20.1425004,
              46.2472499
            ],
            [
              20.1421348,
              46.2474778
            ],
            [
              20.1420613,
              46.2474225
            ]
          ]
        ]
      },
      "id": "way/406699426"
    },
    {
      "type": "Feature",
      "properties": {
        "@id": "way/442825089",
        "addr:city": "Szeged",
        "addr:housenumber": "24",
        "addr:postcode": "6722",
        "addr:street": "Vitéz utca",
        "amenity": "pub",
        "building": "yes",
        "contact:facebook": "campusszeged",
        "contact:mobile": "+36 20 972 2978",
        "contact:website": "https://campusszeged.hu/",
        "delivery": "yes",
        "internet_access": "wlan",
        "internet_access:fee": "no",
        "name": "Campus Beer&More",
        "opening_hours": "Mo-We 09:00-01:00; Th-Fr 09:00-02:00; Sa 17:00-02:00",
        "outdoor_seating": "yes",
        "smoking": "outside",
        "takeaway": "yes"
      },
      "geometry": {
        "type": "Polygon",
        "coordinates": [
          [
            [
              20.1424601,
              46.2475734
            ],
            [
              20.1426112,
              46.2474819
            ],
            [
              20.1427064,
              46.247557
            ],
            [
              20.1425553,
              46.2476486
            ],
            [
              20.1424601,
              46.2475734
            ]
          ]
        ]
      },
      "id": "way/442825089"
    },
    {
      "type": "Feature",
      "properties": {
        "@id": "way/442825098",
        "building": "yes"
      },
      "geometry": {
        "type": "Polygon",
        "coordinates": [
          [
            [
              20.1423568,
              46.2476351
            ],
            [
              20.1424125,
              46.2476017
            ],
            [
              20.1424574,
              46.2476388
            ],
            [
              20.1424031,
              46.2476703
            ],
            [
              20.1423568,
              46.2476351
            ]
          ]
        ]
      },
      "id": "way/442825098"
    },
    {
      "type": "Feature",
      "properties": {
        "@id": "way/442825120",
        "building": "yes"
      },
      "geometry": {
        "type": "Polygon",
        "coordinates": [
          [
            [
              20.1424519,
              46.2477656
            ],
            [
              20.1424802,
              46.2477501
            ],
            [
              20.1424588,
              46.247733
            ],
            [
              20.1424769,
              46.2477228
            ],
            [
              20.142434,
              46.2476926
            ],
            [
              20.1424849,
              46.2476611
            ],
            [
              20.1426392,
              46.2477886
            ],
            [
              20.1425475,
              46.2478434
            ],
            [
              20.1424519,
              46.2477656
            ]
          ]
        ]
      },
      "id": "way/442825120"
    },
    {
      "type": "Feature",
      "properties": {
        "@id": "node/3497550248",
        "access": "no",
        "entrance": "yes"
      },
      "geometry": {
        "type": "Point",
        "coordinates": [
          20.1413816,
          46.2466612
        ]
      },
      "id": "node/3497550248"
    },
    {
      "type": "Feature",
      "properties": {
        "@id": "node/5805113478",
        "amenity": "charging_station",
        "capacity": "1",
        "description": "EVSE201 type; max charge time: 3 hours",
        "opening_hours": "24/7",
        "operator": "e.on",
        "socket:type1": "1",
        "socket:type2": "1",
        "support": "wall_mounted"
      },
      "geometry": {
        "type": "Point",
        "coordinates": [
          20.1423713,
          46.2468442
        ]
      },
      "id": "node/5805113478"
    },
    {
      "type": "Feature",
      "properties": {
        "@id": "node/6076060393",
        "door": "revolving",
        "entrance": "main"
      },
      "geometry": {
        "type": "Point",
        "coordinates": [
          20.1422024,
          46.2471566
        ]
      },
      "id": "node/6076060393"
    },
    {
      "type": "Feature",
      "properties": {
        "@id": "node/6321806385",
        "entrance": "yes"
      },
      "geometry": {
        "type": "Point",
        "coordinates": [
          20.1424542,
          46.2472208
        ]
      },
      "id": "node/6321806385"
    },
    {
      "type": "Feature",
      "properties": {
        "@id": "node/12175409591",
        "access": "private",
        "entrance": "service"
      },
      "geometry": {
        "type": "Point",
        "coordinates": [
          20.1422339,
          46.2467358
        ]
      },
      "id": "node/12175409591"
    }
  ]
}